[{"OBJECT_NAME":"POEM-2","OBJECT_ID":"2023-057A","EPOCH":"2026-03-09T23:37:57.201312","MEAN_MOTION":14.94660083,"ECCENTRICITY":0.00213726,"INCLINATION":9.8873,"RA_OF_ASC_NODE":262.7521,"ARG_OF_PERICENTER":321.9306,"MEAN_ANOMALY":37.9396,"EPHEMERIS_TYPE":0,"CLASSIFICATION_TYPE":"U","NORAD_CAT_ID":56308,"ELEMENT_SET_NO":999,"REV_AT_EPOCH":15739,"BSTAR":0.0002074301,"MEAN_MOTION_DOT":3.02e-5,"MEAN_MOTION_DDOT":0},{"OBJECT_NAME":"CENTAURI-7","OBJECT_ID":"2025-009DD","EPOCH":"2026-03-09T18:21:07.569216","MEAN_MOTION":14.97068612,"ECCENTRICITY":0.00019728,"INCLINATION":97.7123,"RA_OF_ASC_NODE":150.3372,"ARG_OF_PERICENTER":133.1699,"MEAN_ANOMALY":226.9688,"EPHEMERIS_TYPE":0,"CLASSIFICATION_TYPE":"U","NORAD_CAT_ID":62708,"ELEMENT_SET_NO":999,"REV_AT_EPOCH":6258,"BSTAR":0.00048082234,"MEAN_MOTION_DOT":5.487e-5,"MEAN_MOTION_DDOT":0}]
